NAVSTAR 85 (USA 581)    
1 67588U 26017A   26201.10242183 -.00000054  00000+0  00000+0 0  9990
2 67588  55.1095  87.4339 0021305 260.2926  99.5185  2.00570435432274
NAVSTAR 86 (USA 585)    
1 68791U 26087A   26203.31572446  .00000086  00000+0  00000+0 0  9991
2 68791  54.9613 206.3984 0020516 105.9456 257.8163  2.00573383  1540
